[{"OBJECT_NAME":"STARLINK-6213","OBJECT_ID":"2023-083R","EPOCH":"2026-03-09T02:36:59.302080","MEAN_MOTION":15.02534046,"ECCENTRICITY":0.00015964,"INCLINATION":43.005,"RA_OF_ASC_NODE":84.8768,"ARG_OF_PERICENTER":267.5063,"MEAN_ANOMALY":92.5597,"EPHEMERIS_TYPE":0,"CLASSIFICATION_TYPE":"U","NORAD_CAT_ID":56891,"ELEMENT_SET_NO":999,"REV_AT_EPOCH":15158,"BSTAR":-3.6662638e-5,"MEAN_MOTION_DOT":-6.99e-6,"MEAN_MOTION_DDOT":0},{"OBJECT_NAME":"FENGYUN 1C DEB","OBJECT_ID":"1999-025CDM","EPOCH":"2026-03-09T06:24:55.905408","MEAN_MOTION":15.0430028,"ECCENTRICITY":0.00202824,"INCLINATION":99.0326,"RA_OF_ASC_NODE":346.4521,"ARG_OF_PERICENTER":26.5298,"MEAN_ANOMALY":133.8427,"EPHEMERIS_TYPE":0,"CLASSIFICATION_TYPE":"U","NORAD_CAT_ID":31714,"ELEMENT_SET_NO":999,"REV_AT_EPOCH":97342,"BSTAR":0.0098433176,"MEAN_MOTION_DOT":0.00140271,"MEAN_MOTION_DDOT":0}]
